{
    "week": 293,
    "satellites": [
        {
            "Name": "GSAT0101 (GALILEO-PFM)",
            "Line1": "1 37846U 11060A   24323.99506832 -.00000094  00000+0  00000+0 0  9994",
            "Line2": "2 37846  57.1207 357.3471 0002037 303.8025  56.2306  1.70475728 81445",
            "SatelliteNumber": "37846",
            "Classification": "U",
            "LaunchYear": "11",
            "LaunchNumber": "060",
            "PieceOfLaunch": "A",
            "EpochYear": "24",
            "EpochDay": 323.99506832,
            "FirstDerivativeMeanMotion": -9.4e-07,
            "SecondDerivativeMeanMotion": "00000+0",
            "BSTAR": "00000+0",
            "SetNumber": "999",
            "Inclination": 57.1207,
            "RAAN": 357.3471,
            "Eccentricity": 0.0002037,
            "ArgumentOfPerigee": 303.8025,
            "MeanAnomaly": 56.2306,
            "MeanMotion": 1.70475728,
            "RevolutionNumber": "8144"
        },
        {
            "Name": "GSAT0102 (GALILEO-FM2)",
            "Line1": "1 37847U 11060B   24324.50673464 -.00000095  00000+0  00000+0 0  9990",
            "Line2": "2 37847  57.1215 357.3334 0004047 299.7984  59.6556  1.70475252 81326",
            "SatelliteNumber": "37847",
            "Classification": "U",
            "LaunchYear": "11",
            "LaunchNumber": "060",
            "PieceOfLaunch": "B",
            "EpochYear": "24",
            "EpochDay": 324.50673464,
            "FirstDerivativeMeanMotion": -9.5e-07,
            "SecondDerivativeMeanMotion": "00000+0",
            "BSTAR": "00000+0",
            "SetNumber": "999",
            "Inclination": 57.1215,
            "RAAN": 357.3334,
            "Eccentricity": 0.0004047,
            "ArgumentOfPerigee": 299.7984,
            "MeanAnomaly": 59.6556,
            "MeanMotion": 1.70475252,
            "RevolutionNumber": "8132"
        },
        {
            "Name": "GSAT0103 (GALILEO-FM3)",
            "Line1": "1 38857U 12055A   24324.03443304  .00000035  00000+0  00000+0 0  9996",
            "Line2": "2 38857  55.4793 117.3483 0002254 247.4153 112.5331  1.70473492 75209",
            "SatelliteNumber": "38857",
            "Classification": "U",
            "LaunchYear": "12",
            "LaunchNumber": "055",
            "PieceOfLaunch": "A",
            "EpochYear": "24",
            "EpochDay": 324.03443304,
            "FirstDerivativeMeanMotion": 3.5e-07,
            "SecondDerivativeMeanMotion": "00000+0",
            "BSTAR": "00000+0",
            "SetNumber": "999",
            "Inclination": 55.4793,
            "RAAN": 117.3483,
            "Eccentricity": 0.0002254,
            "ArgumentOfPerigee": 247.4153,
            "MeanAnomaly": 112.5331,
            "MeanMotion": 1.70473492,
            "RevolutionNumber": "7520"
        },
        {
            "Name": "GSAT0201 (GALILEO 5)",
            "Line1": "1 40128U 14050A   24325.39482399 -.00000070  00000+0  00000+0 0  9994",
            "Line2": "2 40128  49.4981 296.7730 1615240 157.3295 210.7154  1.85519539 67679",
            "SatelliteNumber": "40128",
            "Classification": "U",
            "LaunchYear": "14",
            "LaunchNumber": "050",
            "PieceOfLaunch": "A",
            "EpochYear": "24",
            "EpochDay": 325.39482399,
            "FirstDerivativeMeanMotion": -7e-07,
            "SecondDerivativeMeanMotion": "00000+0",
            "BSTAR": "00000+0",
            "SetNumber": "999",
            "Inclination": 49.4981,
            "RAAN": 296.773,
            "Eccentricity": 0.161524,
            "ArgumentOfPerigee": 157.3295,
            "MeanAnomaly": 210.7154,
            "MeanMotion": 1.85519539,
            "RevolutionNumber": "6767"
        },
        {
            "Name": "GSAT0202 (GALILEO 6)",
            "Line1": "1 40129U 14050B   24324.57455334 -.00000069  00000+0  00000+0 0  9991",
            "Line2": "2 40129  49.5149 295.8851 1614584 158.0890 209.7021  1.85520315 69824",
            "SatelliteNumber": "40129",
            "Classification": "U",
            "LaunchYear": "14",
            "LaunchNumber": "050",
            "PieceOfLaunch": "B",
            "EpochYear": "24",
            "EpochDay": 324.57455334,
            "FirstDerivativeMeanMotion": -6.9e-07,
            "SecondDerivativeMeanMotion": "00000+0",
            "BSTAR": "00000+0",
            "SetNumber": "999",
            "Inclination": 49.5149,
            "RAAN": 295.8851,
            "Eccentricity": 0.1614584,
            "ArgumentOfPerigee": 158.089,
            "MeanAnomaly": 209.7021,
            "MeanMotion": 1.85520315,
            "RevolutionNumber": "6982"
        },
        {
            "Name": "GSAT0203 (GALILEO 7)",
            "Line1": "1 40544U 15017A   24325.53365815 -.00000096  00000+0  00000+0 0  9997",
            "Line2": "2 40544  56.9155 357.2182 0005985 259.2945 100.6872  1.70476103 60088",
            "SatelliteNumber": "40544",
            "Classification": "U",
            "LaunchYear": "15",
            "LaunchNumber": "017",
            "PieceOfLaunch": "A",
            "EpochYear": "24",
            "EpochDay": 325.53365815,
            "FirstDerivativeMeanMotion": -9.6e-07,
            "SecondDerivativeMeanMotion": "00000+0",
            "BSTAR": "00000+0",
            "SetNumber": "999",
            "Inclination": 56.9155,
            "RAAN": 357.2182,
            "Eccentricity": 0.0005985,
            "ArgumentOfPerigee": 259.2945,
            "MeanAnomaly": 100.6872,
            "MeanMotion": 1.70476103,
            "RevolutionNumber": "6008"
        },
        {
            "Name": "GSAT0204 (GALILEO 8)",
            "Line1": "1 40545U 15017B   24324.61512350 -.00000095  00000+0  00000+0 0  9993",
            "Line2": "2 40545  56.9219 357.2592 0005774 249.6475 110.3411  1.70475617 22457",
            "SatelliteNumber": "40545",
            "Classification": "U",
            "LaunchYear": "15",
            "LaunchNumber": "017",
            "PieceOfLaunch": "B",
            "EpochYear": "24",
            "EpochDay": 324.6151235,
            "FirstDerivativeMeanMotion": -9.5e-07,
            "SecondDerivativeMeanMotion": "00000+0",
            "BSTAR": "00000+0",
            "SetNumber": "999",
            "Inclination": 56.9219,
            "RAAN": 357.2592,
            "Eccentricity": 0.0005774,
            "ArgumentOfPerigee": 249.6475,
            "MeanAnomaly": 110.3411,
            "MeanMotion": 1.70475617,
            "RevolutionNumber": "2245"
        },
        {
            "Name": "GSAT0205 (GALILEO 9)",
            "Line1": "1 40889U 15045A   24324.38356794 -.00000013  00000+0  00000+0 0  9997",
            "Line2": "2 40889  55.1506 237.4841 0005263  30.4286 329.6488  1.70472877 57219",
            "SatelliteNumber": "40889",
            "Classification": "U",
            "LaunchYear": "15",
            "LaunchNumber": "045",
            "PieceOfLaunch": "A",
            "EpochYear": "24",
            "EpochDay": 324.38356794,
            "FirstDerivativeMeanMotion": -1.3e-07,
            "SecondDerivativeMeanMotion": "00000+0",
            "BSTAR": "00000+0",
            "SetNumber": "999",
            "Inclination": 55.1506,
            "RAAN": 237.4841,
            "Eccentricity": 0.0005263,
            "ArgumentOfPerigee": 30.4286,
            "MeanAnomaly": 329.6488,
            "MeanMotion": 1.70472877,
            "RevolutionNumber": "5721"
        },
        {
            "Name": "GSAT0206 (GALILEO 10)",
            "Line1": "1 40890U 15045B   24322.84442737 -.00000006  00000+0  00000+0 0  9993",
            "Line2": "2 40890  55.1507 237.5219 0003217  19.0948 340.9603  1.70472872 57217",
            "SatelliteNumber": "40890",
            "Classification": "U",
            "LaunchYear": "15",
            "LaunchNumber": "045",
            "PieceOfLaunch": "B",
            "EpochYear": "24",
            "EpochDay": 322.84442737,
            "FirstDerivativeMeanMotion": -6e-08,
            "SecondDerivativeMeanMotion": "00000+0",
            "BSTAR": "00000+0",
            "SetNumber": "999",
            "Inclination": 55.1507,
            "RAAN": 237.5219,
            "Eccentricity": 0.0003217,
            "ArgumentOfPerigee": 19.0948,
            "MeanAnomaly": 340.9603,
            "MeanMotion": 1.70472872,
            "RevolutionNumber": "5721"
        },
        {
            "Name": "GSAT0209 (GALILEO 12)",
            "Line1": "1 41174U 15079A   24323.01371595  .00000034  00000+0  00000+0 0  9999",
            "Line2": "2 41174  55.5029 117.0869 0001901 352.9188   7.0505  1.70474365 54951",
            "SatelliteNumber": "41174",
            "Classification": "U",
            "LaunchYear": "15",
            "LaunchNumber": "079",
            "PieceOfLaunch": "A",
            "EpochYear": "24",
            "EpochDay": 323.01371595,
            "FirstDerivativeMeanMotion": 3.4e-07,
            "SecondDerivativeMeanMotion": "00000+0",
            "BSTAR": "00000+0",
            "SetNumber": "999",
            "Inclination": 55.5029,
            "RAAN": 117.0869,
            "Eccentricity": 0.0001901,
            "ArgumentOfPerigee": 352.9188,
            "MeanAnomaly": 7.0505,
            "MeanMotion": 1.70474365,
            "RevolutionNumber": "5495"
        }
    ]
}